{
  "norad_id": 65981,
  "name": "SDA_1671",
  "history": [
    {
      "epoch": "2026-04-14T20:45:03.524832Z",
      "apogee_km": 953.4660917956435,
      "perigee_km": 949.8070688243524,
      "latitude_deg": -2.0795103153518016e-06,
      "longitude_deg": 116.01768809890642,
      "height_km": 953.0674250959587,
      "semi_major_axis_km": 7329.773580309998,
      "eccentricity": 0.0002496,
      "inclination_deg": 81.297,
      "raan_deg": 270.3173,
      "arg_perigee_deg": 38.5485,
      "mean_anomaly_deg": 321.5849,
      "mean_motion_rev_day": 13.83461007
    },
    {
      "epoch": "2026-04-15T19:19:02.717184Z",
      "apogee_km": 953.993480007166,
      "perigee_km": 950.293154503016,
      "latitude_deg": 4.255253785981454e-05,
      "longitude_deg": 135.72409105622216,
      "height_km": 953.566145987209,
      "semi_major_axis_km": 7330.280317255091,
      "eccentricity": 0.0002524,
      "inclination_deg": 81.2972,
      "raan_deg": 269.4471,
      "arg_perigee_deg": 38.9635,
      "mean_anomaly_deg": 321.1703,
      "mean_motion_rev_day": 13.83317553
    },
    {
      "epoch": "2026-04-16T17:53:02.957568Z",
      "apogee_km": 953.9641459471823,
      "perigee_km": 950.3180656173663,
      "latitude_deg": -1.6439328821693235e-05,
      "longitude_deg": 155.42619946221296,
      "height_km": 953.5465436001828,
      "semi_major_axis_km": 7330.278105782274,
      "eccentricity": 0.0002487,
      "inclination_deg": 81.2972,
      "raan_deg": 268.577,
      "arg_perigee_deg": 36.9898,
      "mean_anomaly_deg": 323.1429,
      "mean_motion_rev_day": 13.83318179
    },
    {
      "epoch": "2026-04-17T21:39:31.049280Z",
      "apogee_km": 953.9074087666559,
      "perigee_km": 950.3752408530627,
      "latitude_deg": 2.9810105830968247e-05,
      "longitude_deg": 96.59780228284633,
      "height_km": 953.5416688335637,
      "semi_major_axis_km": 7330.278324809859,
      "eccentricity": 0.00024093,
      "inclination_deg": 81.2973,
      "raan_deg": 267.5063,
      "arg_perigee_deg": 34.1551,
      "mean_anomaly_deg": 325.976,
      "mean_motion_rev_day": 13.83318117
    },
    {
      "epoch": "2026-04-18T16:45:12.859200Z",
      "apogee_km": 953.8879448062935,
      "perigee_km": 950.3957999514914,
      "latitude_deg": -3.2357583071362584e-05,
      "longitude_deg": 168.6531833075127,
      "height_km": 953.5310775032427,
      "semi_major_axis_km": 7330.278872378892,
      "eccentricity": 0.0002382,
      "inclination_deg": 81.2974,
      "raan_deg": 266.7701,
      "arg_perigee_deg": 32.4927,
      "mean_anomaly_deg": 327.6375,
      "mean_motion_rev_day": 13.83317962
    },
    {
      "epoch": "2026-04-19T20:31:40.929312Z",
      "apogee_km": 953.846130414996,
      "perigee_km": 950.4375507541245,
      "latitude_deg": 4.7530100465071985e-05,
      "longitude_deg": 109.82477889198987,
      "height_km": 953.5265970950533,
      "semi_major_axis_km": 7330.2788405845595,
      "eccentricity": 0.0002325,
      "inclination_deg": 81.2976,
      "raan_deg": 265.6993,
      "arg_perigee_deg": 29.904,
      "mean_anomaly_deg": 330.2249,
      "mean_motion_rev_day": 13.83317971
    },
    {
      "epoch": "2026-04-20T08:40:45.689088Z",
      "apogee_km": 953.8308806609457,
      "perigee_km": 950.4517689587747,
      "latitude_deg": 5.315910984834965e-06,
      "longitude_deg": -73.41259798606893,
      "height_km": 953.5265278969928,
      "semi_major_axis_km": 7330.278324809859,
      "eccentricity": 0.00023049,
      "inclination_deg": 81.2975,
      "raan_deg": 265.2308,
      "arg_perigee_deg": 29.0498,
      "mean_anomaly_deg": 331.0786,
      "mean_motion_rev_day": 13.83318117
    },
    {
      "epoch": "2026-04-21T19:23:50.769600Z",
      "apogee_km": 953.7655236784012,
      "perigee_km": 950.5167444093931,
      "latitude_deg": -3.8273914713262306e-05,
      "longitude_deg": 123.05190225297997,
      "height_km": 953.5416367492492,
      "semi_major_axis_km": 7330.278134043897,
      "eccentricity": 0.0002216,
      "inclination_deg": 81.2977,
      "raan_deg": 263.8923,
      "arg_perigee_deg": 25.8402,
      "mean_anomaly_deg": 334.2864,
      "mean_motion_rev_day": 13.83318171
    },
    {
      "epoch": "2026-04-22T19:42:00.353088Z",
      "apogee_km": 953.7317234634438,
      "perigee_km": 950.5533142640643,
      "latitude_deg": -1.181916097089203e-06,
      "longitude_deg": 116.5769993375143,
      "height_km": 953.5456756676462,
      "semi_major_axis_km": 7330.279518863754,
      "eccentricity": 0.0002168,
      "inclination_deg": 81.298,
      "raan_deg": 262.9554,
      "arg_perigee_deg": 23.3094,
      "mean_anomaly_deg": 336.816,
      "mean_motion_rev_day": 13.83317779
    },
    {
      "epoch": "2026-04-23T11:19:23.583936Z",
      "apogee_km": 953.6999404271046,
      "perigee_km": 950.5803210857976,
      "latitude_deg": -8.834195164601098e-06,
      "longitude_deg": -119.01381702741789,
      "height_km": 953.5541867154494,
      "semi_major_axis_km": 7330.277130756451,
      "eccentricity": 0.00021279,
      "inclination_deg": 81.2981,
      "raan_deg": 262.353,
      "arg_perigee_deg": 21.7551,
      "mean_anomaly_deg": 338.3695,
      "mean_motion_rev_day": 13.83318455
    },
    {
      "epoch": "2026-04-24T20:18:19.416384Z",
      "apogee_km": 953.6618063462683,
      "perigee_km": 950.6197410701798,
      "latitude_deg": 1.5744675164897647e-05,
      "longitude_deg": 103.62751998931647,
      "height_km": 953.5544316904694,
      "semi_major_axis_km": 7330.277773708224,
      "eccentricity": 0.0002075,
      "inclination_deg": 81.2983,
      "raan_deg": 261.0815,
      "arg_perigee_deg": 17.6581,
      "mean_anomaly_deg": 342.4647,
      "mean_motion_rev_day": 13.83318273
    },
    {
      "epoch": "2026-04-25T18:52:19.636032Z",
      "apogee_km": 953.6117728765348,
      "perigee_km": 950.6664679313571,
      "latitude_deg": 3.5347579030344714e-05,
      "longitude_deg": 123.3299250156187,
      "height_km": 953.5787308843803,
      "semi_major_axis_km": 7330.276120403945,
      "eccentricity": 0.0002009,
      "inclination_deg": 81.2985,
      "raan_deg": 260.2116,
      "arg_perigee_deg": 14.8291,
      "mean_anomaly_deg": 345.2924,
      "mean_motion_rev_day": 13.83318741
    },
    {
      "epoch": "2026-04-26T20:54:38.403648Z",
      "apogee_km": 953.568834046182,
      "perigee_km": 950.7075344307668,
      "latitude_deg": 3.6758510459637534e-05,
      "longitude_deg": 90.67856219297002,
      "height_km": 953.6027235284552,
      "semi_major_axis_km": 7330.275184238474,
      "eccentricity": 0.00019517,
      "inclination_deg": 81.2985,
      "raan_deg": 259.2078,
      "arg_perigee_deg": 12.1045,
      "mean_anomaly_deg": 348.0158,
      "mean_motion_rev_day": 13.83319006
    }
  ]
}